{
    "links": {
        "self": "http://www.neowsapp.com/rest/v1/neo/3639502?api_key=iIulBulltgU6a56xZRHN4H3l9WmuAYTsLGpBGhQ2"
    },
    "id": "3639502",
    "neo_reference_id": "3639502",
    "name": "(2013 LC2)",
    "designation": "2013 LC2",
    "nasa_jpl_url": "http://ssd.jpl.nasa.gov/sbdb.cgi?sstr=3639502",
    "absolute_magnitude_h": 22.2,
    "estimated_diameter": {
        "kilometers": {
            "estimated_diameter_min": 0.096506147,
            "estimated_diameter_max": 0.2157943048
        },
        "meters": {
            "estimated_diameter_min": 96.5061469579,
            "estimated_diameter_max": 215.7943048444
        },
        "miles": {
            "estimated_diameter_min": 0.059966121,
            "estimated_diameter_max": 0.134088323
        },
        "feet": {
            "estimated_diameter_min": 316.6212271853,
            "estimated_diameter_max": 707.9865871058
        }
    },
    "is_potentially_hazardous_asteroid": false,
    "close_approach_data": [
        {
            "close_approach_date": "1992-07-19",
            "close_approach_date_full": "1992-Jul-19 16:24",
            "epoch_date_close_approach": 711563040000,
            "relative_velocity": {
                "kilometers_per_second": "19.1700744706",
                "kilometers_per_hour": "69012.2680941467",
                "miles_per_hour": "42881.5395832769"
            },
            "miss_distance": {
                "astronomical": "0.4907235236",
                "lunar": "190.8914506804",
                "kilometers": "73411193.889454732",
                "miles": "45615600.6593980216"
            },
            "orbiting_body": "Earth"
        },
        {
            "close_approach_date": "2000-04-21",
            "close_approach_date_full": "2000-Apr-21 14:25",
            "epoch_date_close_approach": 956327100000,
            "relative_velocity": {
                "kilometers_per_second": "16.8367806874",
                "kilometers_per_hour": "60612.4104745522",
                "miles_per_hour": "37662.1947195905"
            },
            "miss_distance": {
                "astronomical": "0.4583902947",
                "lunar": "178.3138246383",
                "kilometers": "68574211.715792289",
                "miles": "42610039.3064160282"
            },
            "orbiting_body": "Earth"
        },
        {
            "close_approach_date": "2013-06-21",
            "close_approach_date_full": "2013-Jun-21 19:57",
            "epoch_date_close_approach": 1371844620000,
            "relative_velocity": {
                "kilometers_per_second": "8.3617558019",
                "kilometers_per_hour": "30102.3208869037",
                "miles_per_hour": "18704.4115533097"
            },
            "miss_distance": {
                "astronomical": "0.0980821241",
                "lunar": "38.1539462749",
                "kilometers": "14672876.850435667",
                "miles": "9117302.8999075246"
            },
            "orbiting_body": "Earth"
        }
    ],
    "orbital_data": {
        "orbit_id": "19",
        "orbit_determination_date": "2017-04-06 08:45:40",
        "first_observation_date": "2013-06-04",
        "last_observation_date": "2013-07-15",
        "data_arc_in_days": 41,
        "observations_used": 83,
        "orbit_uncertainty": "7",
        "minimum_orbit_intersection": ".0780583",
        "jupiter_tisserand_invariant": "3.814",
        "epoch_osculation": "2459000.5",
        "eccentricity": ".4331413581736947",
        "semi_major_axis": "1.899686235857206",
        "inclination": "9.38375056049766",
        "ascending_node_longitude": "94.53262356516569",
        "orbital_period": "956.3596424221096",
        "perihelion_distance": "1.076853559554142",
        "perihelion_argument": "155.0356504972783",
        "aphelion_distance": "2.72251891216027",
        "perihelion_time": "2459317.255397298141",
        "mean_anomaly": "240.7645806356596",
        "mean_motion": ".3764274275399697",
        "equinox": "J2000",
        "orbit_class": {
            "orbit_class_type": "AMO",
            "orbit_class_description": "Near-Earth asteroid orbits similar to that of 1221 Amor",
            "orbit_class_range": "1.017 AU < q (perihelion) < 1.3 AU"
        }
    },
    "is_sentry_object": false
}